[{"OBJECT_NAME":"STARLINK-1810","OBJECT_ID":"2020-073AR","EPOCH":"2026-03-10T00:00:02.999808","MEAN_MOTION":15.46905484,"ECCENTRICITY":0.00036204,"INCLINATION":53.0474,"RA_OF_ASC_NODE":230.4969,"ARG_OF_PERICENTER":174.4348,"MEAN_ANOMALY":86.5459,"EPHEMERIS_TYPE":0,"CLASSIFICATION_TYPE":"U","NORAD_CAT_ID":46709,"ELEMENT_SET_NO":999,"REV_AT_EPOCH":575,"BSTAR":0.002131862,"MEAN_MOTION_DOT":0.00110175,"MEAN_MOTION_DDOT":0},{"OBJECT_NAME":"FLOCK 4Q-27","OBJECT_ID":"2023-174AC","EPOCH":"2026-03-09T18:08:56.455008","MEAN_MOTION":15.49038169,"ECCENTRICITY":0.00065991,"INCLINATION":97.3847,"RA_OF_ASC_NODE":156.6778,"ARG_OF_PERICENTER":148.7525,"MEAN_ANOMALY":211.412,"EPHEMERIS_TYPE":0,"CLASSIFICATION_TYPE":"U","NORAD_CAT_ID":58282,"ELEMENT_SET_NO":999,"REV_AT_EPOCH":13033,"BSTAR":0.00055152381,"MEAN_MOTION_DOT":0.00029883,"MEAN_MOTION_DDOT":0}]
